ONEWEB-0063             
1 45448U 20020AA  26155.66128666 -.00000486  00000+0 -14064-2 0  9995
2 45448  87.8906  23.5605 0002103  94.9954 265.1414 13.11419006301050
ONEWEB-0019             
1 45449U 20020AB  26155.16594215  .00000541  00000+0  14918-2 0  9996
2 45449  87.8901  23.6462 0001659  84.1593 275.9724 13.11416222300838
ONEWEB-0094             
1 45450U 20020AC  26155.14190681  .00000011  00000+0 -53088-5 0  9992
2 45450  87.9154   8.4429 0001675  79.2649 280.8671 13.17650580304596
ONEWEB-0087             
1 45451U 20020AD  26155.67118527 -.00000746  00000+0 -21394-2 0  9998
2 45451  87.8956  23.5254 0002213  66.0551 294.0808 13.11417638300948
ONEWEB-0082             
1 45452U 20020AE  26155.66780252 -.00000092  00000+0 -29620-3 0  9993
2 45452  87.8887  23.5528 0002138  72.4755 287.6606 13.11419024301035
ONEWEB-0050             
1 45453U 20020AF  26155.65378166  .00002959  00000+0  30237-3 0  9998
2 45453  88.9296 234.9111 0005008  52.4971 307.6712 14.90326569338518
ONEWEB-0034             
1 45454U 20020AG  26155.16962309  .00000570  00000+0  15823-2 0  9993
2 45454  87.8904  23.6583 0001760  84.5723 275.5605 13.10933107300887
ONEWEB-0060             
1 45455U 20020AH  26155.66029448 -.00000513  00000+0 -14824-2 0  9996
2 45455  87.8897  23.5595 0001886  50.6628 309.4667 13.11416908300902
ONEWEB-0086             
1 45456U 20020AJ  26155.18131546 -.00000587  00000+0 -16912-2 0  9998
2 45456  87.8930  23.6533 0001372  55.8623 304.2635 13.11432808300901
ONEWEB-0088             
1 45457U 20020AK  26155.15930227  .00000548  00000+0  15093-2 0  9993
2 45457  87.8919  23.6256 0002245  84.8614 275.2770 13.11417195300834
ONEWEB-0102             
1 47258U 20100A   26155.02117134 -.00000031  00000+0 -12268-3 0  9994
2 47258  87.8941 353.2947 0001470  88.0745 272.0552 13.12442743263007
ONEWEB-0109             
1 47259U 20100B   26155.02963890 -.00000281  00000+0 -81652-3 0  9993
2 47259  87.8950 353.2753 0001702  92.3931 267.7393 13.12442532262836
ONEWEB-0110             
1 47260U 20100C   26155.05674805 -.00000036  00000+0 -13426-3 0  9995
2 47260  87.8948 353.2540 0001579  80.4782 279.6525 13.12445006263001
ONEWEB-0111             
1 47261U 20100D   26155.08723635  .00000273  00000+0  72423-3 0  9998
2 47261  87.8952 353.2671 0001783  81.7044 278.4286 13.12443204262844
ONEWEB-0114             
1 47262U 20100E   26155.11773141 -.00000424  00000+0 -12151-2 0  9991
2 47262  87.8952 353.2577 0001794 102.1340 257.9989 13.12444979262807
ONEWEB-0117             
1 47263U 20100F   26155.03302534 -.00000341  00000+0 -98416-3 0  9994
2 47263  87.8949 353.2664 0001756  87.5133 272.6197 13.12442029262804
ONEWEB-0118             
1 47264U 20100G   26155.06691067  .00000354  00000+0  94846-3 0  9995
2 47264  87.8949 353.2623 0001998  95.6634 264.4722 13.12444017263009
ONEWEB-0119             
1 47265U 20100H   26155.09232766  .00000460  00000+0  12445-2 0  9998
2 47265  87.8938 353.2750 0001621  82.8912 277.2401 13.12442538262987
ONEWEB-0120             
1 47266U 20100J   26155.11618228 -.00000409  00000+0 -11734-2 0  9998
2 47266  87.8940 353.2711 0001637  96.3351 263.7964 13.12444416263018
ONEWEB-0121             
1 47267U 20100K   26155.02794542 -.00000245  00000+0 -71745-3 0  9990
2 47267  87.8952 353.2738 0001890  78.4200 281.7141 13.12441884262917
ONEWEB-0122             
1 47268U 20100L   26155.09826030 -.00000041  00000+0 -14802-3 0  9991
2 47268  87.8959 353.2651 0001517  93.8363 266.2939 13.12440849262830
ONEWEB-0123             
1 47269U 20100M   26155.01778784  .00000123  00000+0  30643-3 0  9996
2 47269  87.8942 353.2893 0001834  89.7977 270.3362 13.12442645262964
ONEWEB-0124             
1 47270U 20100N   26155.08386346  .00000352  00000+0  94311-3 0  9990
2 47270  87.8939 353.2785 0001846  86.0860 274.0479 13.12442880262855
ONEWEB-0125             
1 47271U 20100P   26155.06183465 -.00000028  00000+0 -11289-3 0  9991
2 47271  87.8954 353.2654 0002143  86.6977 273.4397 13.12444591262914
ONEWEB-0126             
1 47272U 20100Q   26155.08230676  .00000393  00000+0  10560-2 0  9994
2 47272  87.8947 353.2777 0001734  90.7451 269.3876 13.12441755262983
ONEWEB-0127             
1 47273U 20100R   26155.04827235 -.00000284  00000+0 -82383-3 0  9998
2 47273  87.8940 353.2838 0001726  89.1351 270.9976 13.12443998263001
ONEWEB-0128             
1 47274U 20100S   26155.07029799  .00000403  00000+0  10850-2 0  9991
2 47274  87.8940 353.2936 0001573  83.1746 276.9562 13.12443205263023
ONEWEB-0129             
1 47275U 20100T   26155.04996516 -.00000274  00000+0 -79621-3 0  9999
2 47275  87.8950 353.2699 0001788 125.4258 234.7038 13.12443154262951
ONEWEB-0130             
1 47276U 20100U   26155.07708635  .00000405  00000+0  10894-2 0  9996
2 47276  87.8950 353.2595 0001773  97.4158 262.7172 13.12442784262923
ONEWEB-0131             
1 47277U 20100V   26155.07369168  .00000436  00000+0  11752-2 0  9999
2 47277  87.8940 353.2793 0001727  87.5242 272.6085 13.12443390262967
